{
    "links": {
        "self": "http://www.neowsapp.com/rest/v1/neo/54076350?api_key=iIulBulltgU6a56xZRHN4H3l9WmuAYTsLGpBGhQ2"
    },
    "id": "54076350",
    "neo_reference_id": "54076350",
    "name": "(2020 US4)",
    "designation": "2020 US4",
    "nasa_jpl_url": "http://ssd.jpl.nasa.gov/sbdb.cgi?sstr=54076350",
    "absolute_magnitude_h": 25.783,
    "estimated_diameter": {
        "kilometers": {
            "estimated_diameter_min": 0.0185333948,
            "estimated_diameter_max": 0.0414419306
        },
        "meters": {
            "estimated_diameter_min": 18.5333947739,
            "estimated_diameter_max": 41.4419305683
        },
        "miles": {
            "estimated_diameter_min": 0.011516114,
            "estimated_diameter_max": 0.0257508138
        },
        "feet": {
            "estimated_diameter_min": 60.8051029101,
            "estimated_diameter_max": 135.9643434857
        }
    },
    "is_potentially_hazardous_asteroid": false,
    "close_approach_data": [
        {
            "close_approach_date": "2020-10-20",
            "close_approach_date_full": "2020-Oct-20 03:28",
            "epoch_date_close_approach": 1603164480000,
            "relative_velocity": {
                "kilometers_per_second": "8.893837424",
                "kilometers_per_hour": "32017.8147264653",
                "miles_per_hour": "19894.6249337862"
            },
            "miss_distance": {
                "astronomical": "0.0591449682",
                "lunar": "23.0073926298",
                "kilometers": "8847961.263937734",
                "miles": "5497868.1898753692"
            },
            "orbiting_body": "Earth"
        }
    ],
    "orbital_data": {
        "orbit_id": "1",
        "orbit_determination_date": "2020-10-24 07:43:32",
        "first_observation_date": "2020-10-18",
        "last_observation_date": "2020-10-24",
        "data_arc_in_days": 6,
        "observations_used": 18,
        "orbit_uncertainty": "8",
        "minimum_orbit_intersection": ".0543132",
        "jupiter_tisserand_invariant": "3.372",
        "epoch_osculation": "2459143.5",
        "eccentricity": ".5404819075702458",
        "semi_major_axis": "2.286294971870814",
        "inclination": "10.77870782691576",
        "ascending_node_longitude": "25.43828783944846",
        "orbital_period": "1262.690225811729",
        "perihelion_distance": "1.050593904205815",
        "perihelion_argument": "356.9845944076287",
        "aphelion_distance": "3.521996039535813",
        "perihelion_time": "2459139.687617970728",
        "mean_anomaly": "1.086931301503998",
        "mean_motion": ".2851055568823869",
        "equinox": "J2000",
        "orbit_class": {
            "orbit_class_type": "AMO",
            "orbit_class_description": "Near-Earth asteroid orbits similar to that of 1221 Amor",
            "orbit_class_range": "1.017 AU < q (perihelion) < 1.3 AU"
        }
    },
    "is_sentry_object": false
}